[{"OBJECT_NAME":"OSCAR 31","OBJECT_ID":"1988-074B","EPOCH":"2026-04-25T18:27:37.439712","MEAN_MOTION":13.42604841,"ECCENTRICITY":0.0092874,"INCLINATION":90.047,"RA_OF_ASC_NODE":21.1176,"ARG_OF_PERICENTER":217.3682,"MEAN_ANOMALY":206.4815,"EPHEMERIS_TYPE":0,"CLASSIFICATION_TYPE":"U","NORAD_CAT_ID":19420,"ELEMENT_SET_NO":999,"REV_AT_EPOCH":84449,"BSTAR":9.0798e-5,"MEAN_MOTION_DOT":6.1e-7,"MEAN_MOTION_DDOT":0}]
